<system>
<name>Kepler-9</name>
<starRadius>1.1</starRadius>
<starTemperature>5722</starTemperature>
<featuredPlanetName>Kepler-9b</featuredPlanetName>

<planets>
<planet>
<name>Kepler-9b</name>
<semimajorAxis>.14</semimajorAxis>
<radius>0.842</radius>
<period>19.24</period>
<longitudeOfAscendingNode>1.570795</longitudeOfAscendingNode>
<argumentOfPericenter>1.570795</argumentOfPericenter>
<inclination>1.545488</inclination>
<eccentricity>0.15</eccentricity>
<transitDuration>3.822</transitDuration>
<meanAnomalyAtTransitMiddle>0</meanAnomalyAtTransitMiddle>

<!-- data for Kepler-9b, generated 12/23/2010 -->
<dataPoints>
<pt><ma>6.22180129</ma><i>0.99994487</i></pt>
<pt><ma>6.22847585</ma><i>0.99972118</i></pt>
<pt><ma>6.23515048</ma><i>1.00108536</i></pt>
<pt><ma>6.24182507</ma><i>1.00017832</i></pt>
<pt><ma>6.24849963</ma><i>1.00017010</i></pt>
<pt><ma>6.25517422</ma><i>0.99984314</i></pt>
<pt><ma>6.26184885</ma><i>0.99513325</i></pt>
<pt><ma>6.26852341</ma><i>0.99306938</i></pt>
<pt><ma>6.27519800</ma><i>0.99284780</i></pt>
<pt><ma>6.28187263</ma><i>0.99258072</i></pt>
<pt><ma>0.00536188</ma><i>0.99282530</i></pt>
<pt><ma>0.01203647</ma><i>0.99385738</i></pt>
<pt><ma>0.01871107</ma><i>0.99432758</i></pt>
<pt><ma>0.02538566</ma><i>0.99692872</i></pt>
<pt><ma>0.03206025</ma><i>1.00033331</i></pt>
<pt><ma>0.03873485</ma><i>1.00001614</i></pt>
<pt><ma>0.04540941</ma><i>0.99983640</i></pt>
<pt><ma>0.05208403</ma><i>0.99982756</i></pt>
<pt><ma>0.05875862</ma><i>0.99973919</i></pt>
<pt><ma>6.22604975</ma><i>0.99985229</i></pt>
<pt><ma>6.23272431</ma><i>0.99969859</i></pt>
<pt><ma>6.23939879</ma><i>0.99974218</i></pt>
<pt><ma>6.24607332</ma><i>0.99945418</i></pt>
<pt><ma>6.25274780</ma><i>0.99937505</i></pt>
<pt><ma>6.25942236</ma><i>0.99558289</i></pt>
<pt><ma>6.26609688</ma><i>0.99282303</i></pt>
<pt><ma>6.27277137</ma><i>0.99299887</i></pt>
<pt><ma>6.27944592</ma><i>0.99277174</i></pt>
<pt><ma>0.00293513</ma><i>0.99299277</i></pt>
<pt><ma>0.00960966</ma><i>0.99303525</i></pt>
<pt><ma>0.01628414</ma><i>0.99329786</i></pt>
<pt><ma>0.02295870</ma><i>0.99530827</i></pt>
<pt><ma>0.02963322</ma><i>0.99932512</i></pt>
<pt><ma>0.03630771</ma><i>0.99992424</i></pt>
<pt><ma>0.04298223</ma><i>1.00024497</i></pt>
<pt><ma>0.04965678</ma><i>1.00043712</i></pt>
<pt><ma>0.05633127</ma><i>0.99982235</i></pt>
<pt><ma>6.22763349</ma><i>0.99968798</i></pt>
<pt><ma>6.23430786</ma><i>1.00023486</i></pt>
<pt><ma>6.24098219</ma><i>1.00001354</i></pt>
<pt><ma>6.24765649</ma><i>0.99986814</i></pt>
<pt><ma>6.25433086</ma><i>0.99946783</i></pt>
<pt><ma>6.26100519</ma><i>0.99476237</i></pt>
<pt><ma>6.26767949</ma><i>0.99274486</i></pt>
<pt><ma>6.27435390</ma><i>0.99211573</i></pt>
<pt><ma>6.28102837</ma><i>0.99253435</i></pt>
<pt><ma>0.00451752</ma><i>0.99257398</i></pt>
<pt><ma>0.01119195</ma><i>0.99284943</i></pt>
<pt><ma>0.01786645</ma><i>0.99370342</i></pt>
<pt><ma>0.02454091</ma><i>0.99661157</i></pt>
<pt><ma>0.03121534</ma><i>0.99990598</i></pt>
<pt><ma>0.03788984</ma><i>0.99960446</i></pt>
<pt><ma>0.04456430</ma><i>1.00015823</i></pt>
<pt><ma>0.05123874</ma><i>0.99994554</i></pt>
<pt><ma>0.05791320</ma><i>0.99988783</i></pt>
<pt><ma>6.22507043</ma><i>1.00016241</i></pt>
<pt><ma>6.23174483</ma><i>0.99947543</i></pt>
<pt><ma>6.23841920</ma><i>0.99960641</i></pt>
<pt><ma>6.24509353</ma><i>1.00039752</i></pt>
<pt><ma>6.25176790</ma><i>1.00028565</i></pt>
<pt><ma>6.25844229</ma><i>0.99677144</i></pt>
<pt><ma>6.26511662</ma><i>0.99391131</i></pt>
<pt><ma>6.27179099</ma><i>0.99323690</i></pt>
<pt><ma>6.27846538</ma><i>0.99248939</i></pt>
<pt><ma>0.00195078</ma><i>0.99265345</i></pt>
<pt><ma>0.00862068</ma><i>0.99316006</i></pt>
<pt><ma>0.01529065</ma><i>0.99338380</i></pt>
<pt><ma>0.02196058</ma><i>0.99498926</i></pt>
<pt><ma>0.02863048</ma><i>0.99975320</i></pt>
<pt><ma>0.03530042</ma><i>1.00002445</i></pt>
<pt><ma>0.04197035</ma><i>0.99954579</i></pt>
<pt><ma>0.04864028</ma><i>0.99988764</i></pt>
<pt><ma>0.05531022</ma><i>1.00015022</i></pt>
<pt><ma>6.22495414</ma><i>1.00019874</i></pt>
<pt><ma>6.23162398</ma><i>1.00027804</i></pt>
<pt><ma>6.23829385</ma><i>1.00011354</i></pt>
<pt><ma>6.24496369</ma><i>0.99993019</i></pt>
<pt><ma>6.25163350</ma><i>1.00009979</i></pt>
<pt><ma>6.25830338</ma><i>0.99742881</i></pt>
<pt><ma>6.26497319</ma><i>0.99378401</i></pt>
<pt><ma>6.27164303</ma><i>0.99316023</i></pt>
<pt><ma>6.27831291</ma><i>0.99251493</i></pt>
<pt><ma>0.00179796</ma><i>0.99277273</i></pt>
<pt><ma>0.00846959</ma><i>0.99266378</i></pt>
<pt><ma>0.01514121</ma><i>0.99423036</i></pt>
<pt><ma>0.02181285</ma><i>0.99568518</i></pt>
<pt><ma>0.02848444</ma><i>0.99928229</i></pt>
<pt><ma>0.03515606</ma><i>0.99999363</i></pt>
<pt><ma>0.04182772</ma><i>1.00028935</i></pt>
<pt><ma>0.04849930</ma><i>1.00005276</i></pt>
<pt><ma>0.05517092</ma><i>0.99948712</i></pt>
<pt><ma>6.22776125</ma><i>0.99985181</i></pt>
<pt><ma>6.23443275</ma><i>0.99983720</i></pt>
<pt><ma>6.24110422</ma><i>0.99978966</i></pt>
<pt><ma>6.24777572</ma><i>0.99978057</i></pt>
<pt><ma>6.25444725</ma><i>0.99919071</i></pt>
<pt><ma>6.26111871</ma><i>0.99462326</i></pt>
<pt><ma>6.26779021</ma><i>0.99341785</i></pt>
<pt><ma>6.27446174</ma><i>0.99275072</i></pt>
<pt><ma>6.28113320</ma><i>0.99226578</i></pt>
<pt><ma>0.00461939</ma><i>0.99288585</i></pt>
<pt><ma>0.01129070</ma><i>0.99250498</i></pt>
<pt><ma>0.01796146</ma><i>0.99329695</i></pt>
<pt><ma>0.02463221</ma><i>0.99654572</i></pt>
<pt><ma>0.03130297</ma><i>0.99945419</i></pt>
<pt><ma>0.03797373</ma><i>0.99942337</i></pt>
<pt><ma>0.04464448</ma><i>1.00003804</i></pt>
<pt><ma>0.05131524</ma><i>0.99969691</i></pt>
<pt><ma>0.05798597</ma><i>0.99983515</i></pt>
<pt><ma>6.22175463</ma><i>1.00028525</i></pt>
<pt><ma>6.22842537</ma><i>1.00011172</i></pt>
<pt><ma>6.23509614</ma><i>1.00041285</i></pt>
<pt><ma>6.24176685</ma><i>1.00060522</i></pt>
<pt><ma>6.24843759</ma><i>0.99991709</i></pt>
<pt><ma>6.25510830</ma><i>0.99931835</i></pt>
<pt><ma>6.26177908</ma><i>0.99441078</i></pt>
<pt><ma>6.26844982</ma><i>0.99286725</i></pt>
<pt><ma>6.27512053</ma><i>0.99300891</i></pt>
<pt><ma>6.28179130</ma><i>0.99252649</i></pt>
<pt><ma>0.00527674</ma><i>0.99280827</i></pt>
<pt><ma>0.01194745</ma><i>0.99291108</i></pt>
<pt><ma>0.01861529</ma><i>0.99414456</i></pt>
<pt><ma>0.02528191</ma><i>0.99701082</i></pt>
<pt><ma>0.03194856</ma><i>1.00048703</i></pt>
<pt><ma>0.03861521</ma><i>1.00043268</i></pt>
<pt><ma>0.04528190</ma><i>1.00016034</i></pt>
<pt><ma>0.05194851</ma><i>1.00009399</i></pt>
<pt><ma>0.05861517</ma><i>0.99985252</i></pt>
<pt><ma>6.22527449</ma><i>0.99963571</i></pt>
<pt><ma>6.23194120</ma><i>1.00030494</i></pt>
<pt><ma>6.23860787</ma><i>1.00009764</i></pt>
<pt><ma>6.24527452</ma><i>1.00025526</i></pt>
<pt><ma>6.25194122</ma><i>1.00023790</i></pt>
<pt><ma>6.25860790</ma><i>0.99643396</i></pt>
<pt><ma>6.26527454</ma><i>0.99316659</i></pt>
<pt><ma>6.27194124</ma><i>0.99208865</i></pt>
<pt><ma>6.27860792</ma><i>0.99206832</i></pt>
<pt><ma>0.00208925</ma><i>0.99179218</i></pt>
<pt><ma>0.00875593</ma><i>0.99210285</i></pt>
<pt><ma>0.01542297</ma><i>0.99310601</i></pt>
<pt><ma>0.02209150</ma><i>0.99451499</i></pt>
<pt><ma>0.02876007</ma><i>0.99909827</i></pt>
<pt><ma>0.03542863</ma><i>1.00002441</i></pt>
<pt><ma>0.04209719</ma><i>0.99954473</i></pt>
<pt><ma>0.04876576</ma><i>0.99986344</i></pt>
<pt><ma>0.05543432</ma><i>0.99997583</i></pt>
<pt><ma>6.22388065</ma><i>0.99989273</i></pt>
<pt><ma>6.23054923</ma><i>0.99992378</i></pt>
<pt><ma>6.23721789</ma><i>1.00016117</i></pt>
<pt><ma>6.24388651</ma><i>1.00024667</i></pt>
<pt><ma>6.25055510</ma><i>1.00008023</i></pt>
<pt><ma>6.25722372</ma><i>0.99801155</i></pt>
<pt><ma>6.26389238</ma><i>0.99346216</i></pt>
<pt><ma>6.27056100</ma><i>0.99276570</i></pt>
<pt><ma>6.27722959</ma><i>0.99272587</i></pt>
<pt><ma>0.00071294</ma><i>0.99287490</i></pt>
<pt><ma>0.00738156</ma><i>0.99269103</i></pt>
<pt><ma>0.01405015</ma><i>0.99390964</i></pt>
<pt><ma>0.02071598</ma><i>0.99430767</i></pt>
<pt><ma>0.02738023</ma><i>0.99841991</i></pt>
<pt><ma>0.03404445</ma><i>1.00029185</i></pt>
<pt><ma>0.04070870</ma><i>1.00041307</i></pt>
<pt><ma>0.04737299</ma><i>1.00030508</i></pt>
<pt><ma>0.05403721</ma><i>0.99997411</i></pt>
<pt><ma>0.06070147</ma><i>1.00012760</i></pt>
</dataPoints>
<curvePoints>
<pt><ma>6.22230067</ma><i>0.99997382</i></pt>
<pt><ma>6.22291879</ma><i>0.99997382</i></pt>
<pt><ma>6.22353691</ma><i>0.99997382</i></pt>
<pt><ma>6.22415503</ma><i>0.99997382</i></pt>
<pt><ma>6.22477314</ma><i>0.99997382</i></pt>
<pt><ma>6.22539126</ma><i>0.99997382</i></pt>
<pt><ma>6.22600938</ma><i>0.99997382</i></pt>
<pt><ma>6.22662750</ma><i>0.99997382</i></pt>
<pt><ma>6.22724562</ma><i>0.99997382</i></pt>
<pt><ma>6.22786374</ma><i>0.99997382</i></pt>
<pt><ma>6.22848185</ma><i>0.99997382</i></pt>
<pt><ma>6.22909997</ma><i>0.99997382</i></pt>
<pt><ma>6.22971809</ma><i>0.99997382</i></pt>
<pt><ma>6.23033621</ma><i>0.99997382</i></pt>
<pt><ma>6.23095433</ma><i>0.99997382</i></pt>
<pt><ma>6.23157244</ma><i>0.99997382</i></pt>
<pt><ma>6.23219056</ma><i>0.99997382</i></pt>
<pt><ma>6.23280868</ma><i>0.99997382</i></pt>
<pt><ma>6.23342680</ma><i>0.99997382</i></pt>
<pt><ma>6.23404492</ma><i>0.99997382</i></pt>
<pt><ma>6.23466303</ma><i>0.99997382</i></pt>
<pt><ma>6.23528115</ma><i>0.99997382</i></pt>
<pt><ma>6.23589927</ma><i>0.99997382</i></pt>
<pt><ma>6.23651739</ma><i>0.99997382</i></pt>
<pt><ma>6.23713551</ma><i>0.99997382</i></pt>
<pt><ma>6.23775363</ma><i>0.99997382</i></pt>
<pt><ma>6.23837174</ma><i>0.99997382</i></pt>
<pt><ma>6.23898986</ma><i>0.99997382</i></pt>
<pt><ma>6.23960798</ma><i>0.99997382</i></pt>
<pt><ma>6.24022610</ma><i>0.99997382</i></pt>
<pt><ma>6.24084422</ma><i>0.99997382</i></pt>
<pt><ma>6.24146233</ma><i>0.99997382</i></pt>
<pt><ma>6.24208045</ma><i>0.99997382</i></pt>
<pt><ma>6.24269857</ma><i>0.99997382</i></pt>
<pt><ma>6.24331669</ma><i>0.99997382</i></pt>
<pt><ma>6.24393481</ma><i>0.99997382</i></pt>
<pt><ma>6.24455292</ma><i>0.99997382</i></pt>
<pt><ma>6.24517104</ma><i>0.99997382</i></pt>
